[{"OBJECT_NAME":"TRANSPORTER-12 OBJECT BT","OBJECT_ID":"2025-009BT","EPOCH":"2026-03-09T17:08:24.281088","MEAN_MOTION":15.27872239,"ECCENTRICITY":0.00036816,"INCLINATION":97.4094,"RA_OF_ASC_NODE":151.5992,"ARG_OF_PERICENTER":313.5044,"MEAN_ANOMALY":46.5889,"EPHEMERIS_TYPE":0,"CLASSIFICATION_TYPE":"U","NORAD_CAT_ID":62674,"ELEMENT_SET_NO":999,"REV_AT_EPOCH":12136,"BSTAR":0.000510288,"MEAN_MOTION_DOT":0.00013824,"MEAN_MOTION_DDOT":0},{"OBJECT_NAME":"STARLINK-35511","OBJECT_ID":"2025-253AB","EPOCH":"2026-03-09T11:02:20.178528","MEAN_MOTION":15.27591717,"ECCENTRICITY":0.00014518,"INCLINATION":43.0017,"RA_OF_ASC_NODE":213.4255,"ARG_OF_PERICENTER":243.6652,"MEAN_ANOMALY":116.405,"EPHEMERIS_TYPE":0,"CLASSIFICATION_TYPE":"U","NORAD_CAT_ID":66344,"ELEMENT_SET_NO":999,"REV_AT_EPOCH":2021,"BSTAR":0.0011744517,"MEAN_MOTION_DOT":0.00032209,"MEAN_MOTION_DDOT":0}]
